[{"OBJECT_NAME":"GEESAT-2 03","OBJECT_ID":"2024-023C","EPOCH":"2026-03-09T23:27:51.195168","MEAN_MOTION":14.9659792,"ECCENTRICITY":0.00063134,"INCLINATION":50.0004,"RA_OF_ASC_NODE":73.5934,"ARG_OF_PERICENTER":3.6102,"MEAN_ANOMALY":356.4887,"EPHEMERIS_TYPE":0,"CLASSIFICATION_TYPE":"U","NORAD_CAT_ID":58907,"ELEMENT_SET_NO":999,"REV_AT_EPOCH":11446,"BSTAR":0.00027230842,"MEAN_MOTION_DOT":2.885e-5,"MEAN_MOTION_DDOT":0},{"OBJECT_NAME":"STARLINK-32257","OBJECT_ID":"2024-225J","EPOCH":"2026-03-09T15:45:01.258848","MEAN_MOTION":14.98365212,"ECCENTRICITY":0.00026278,"INCLINATION":70.0044,"RA_OF_ASC_NODE":164.4004,"ARG_OF_PERICENTER":234.9883,"MEAN_ANOMALY":125.103,"EPHEMERIS_TYPE":0,"CLASSIFICATION_TYPE":"U","NORAD_CAT_ID":62171,"ELEMENT_SET_NO":999,"REV_AT_EPOCH":6987,"BSTAR":0.0011832549,"MEAN_MOTION_DOT":0.00014066,"MEAN_MOTION_DDOT":0}]
